SatCatId,ObjectName,LaunchYear,OrbitalPeriod,LaunchMass,StatusCode,Inclination,Status,UcsData,OrbitClassEstimated,LaunchSiteCountry,Owner,UseType,Purpose,LaunchVehicleClass,TLE1,TLE2,MeanMotion,Eccentricity,OrbitClass
63296,OBJECT F,2025,95.29,-1.0,+,97.63,Active,0,LEO,PRC,China,Unknown,Unknown,Unknown,1 63296U 25055F   25301.64142081  .00013223  00000+0  78732-3 0  9990,2 63296  97.6293  75.6182 0013007 200.2017 159.8700 15.11273517 33960,15.11273517,0.0013007,LEO
63297,OBJECT G,2025,94.97,-1.0,+,97.63,Active,0,LEO,PRC,China,Unknown,Unknown,Unknown,1 63297U 25055G   25301.64600514  .00019370  00000+0  99841-3 0  9994,2 63297  97.6265  76.6329 0010035 238.3951 121.6303 15.16371723 34039,15.16371723,0.0010035,LEO
63298,OBJECT H,2025,94.75,-1.0,+,97.63,Active,0,LEO,PRC,China,Unknown,Unknown,Unknown,1 63298U 25055H   25301.61857181  .00031416  00000+0  14594-2 0  9992,2 63298  97.6257  77.1137 0010320 237.2211 122.8030 15.19890893 34068,15.19890893,0.001032,LEO
63300,KINEIS-4E,2025,97.81,-1.0,+,98.0,Active,0,LEO,New Zealand,France,Unknown,Unknown,Unknown,1 63300U 25056A   25301.63679102  .00003361  00000+0  54023-3 0  9994,2 63300  97.9980  65.0649 0000517  51.6323 308.4931 14.72234068 33055,14.72234068,5.17e-05,LEO
63301,KINEIS-4C,2025,97.79,-1.0,+,98.0,Active,0,LEO,New Zealand,France,Unknown,Unknown,Unknown,1 63301U 25056B   25301.65228429  .00003490  00000+0  55667-3 0  9997,2 63301  97.9979  65.2003 0001620  46.3617 313.7725 14.72549450 33068,14.7254945,0.000162,LEO
63302,KINEIS-4D,2025,97.8,-1.0,+,98.0,Active,0,LEO,New Zealand,France,Unknown,Unknown,Unknown,1 63302U 25056C   25301.65247723  .00003422  00000+0  54840-3 0  9993,2 63302  97.9980  65.1998 0001611  30.1996 329.9304 14.72351484 33064,14.72351484,0.0001611,LEO
63303,KINEIS-4A,2025,97.8,-1.0,+,98.0,Active,0,LEO,New Zealand,France,Unknown,Unknown,Unknown,1 63303U 25056D   25301.62060613  .00003172  00000+0  50905-3 0  9992,2 63303  97.9979  65.0866 0001722 337.1889  22.9242 14.72351220 33058,14.7235122,0.0001722,LEO
63304,KINEIS-4B,2025,97.81,-1.0,+,98.0,Active,0,LEO,New Zealand,France,Unknown,Unknown,Unknown,1 63304U 25056E   25301.60354039  .00003293  00000+0  52880-3 0  9997,2 63304  97.9980  65.1108 0001621 296.6220  63.4821 14.72292133 33046,14.72292133,0.0001621,LEO
63307,STARLINK-11568 [DTC],2025,91.67,-1.0,+,43.0,Active,0,LEO,USA,USA,Unknown,Unknown,Unknown,1 63307U 25057A   25301.51534581  .00294571  00000+0  22059-2 0  9998,2 63307  43.0020 340.9145 0004460 275.7325  84.3034 15.70972768 36396,15.70972768,0.000446,LEO
63308,STARLINK-11575 [DTC],2025,91.66,-1.0,+,43.0,Active,0,LEO,USA,USA,Unknown,Unknown,Unknown,1 63308U 25057B   25301.47831586  .00315988  00000+0  23683-2 0  9999,2 63308  42.9998 341.5087 0002266 279.4390  80.6221 15.70893698 36386,15.70893698,0.0002266,LEO
63309,STARLINK-11585 [DTC],2025,91.67,-1.0,+,43.0,Active,0,LEO,USA,USA,Unknown,Unknown,Unknown,1 63309U 25057C   25301.52596742  .00236945  00000+0  17905-2 0  9993,2 63309  43.0005 340.9986 0003293 282.7316  77.3183 15.70936613 36425,15.70936613,0.0003293,LEO
63310,STARLINK-11587 [DTC],2025,91.67,-1.0,+,43.0,Active,0,LEO,USA,USA,Unknown,Unknown,Unknown,1 63310U 25057D   25301.49955929  .00300469  00000+0  22341-2 0  9990,2 63310  43.0004 341.6804 0002759 304.7579  55.3029 15.71129537 36385,15.71129537,0.0002759,LEO
63311,STARLINK-11589 [DTC],2025,91.67,-1.0,+,43.0,Active,0,LEO,USA,USA,Unknown,Unknown,Unknown,1 63311U 25057E   25301.50486746  .00462371  00000+0  33584-2 0  9991,2 63311  42.9986 341.7221 0002878 288.5854  71.4701 15.71206071 36389,15.71206071,0.0002878,LEO
63312,STARLINK-11650 [DTC],2025,91.67,-1.0,+,43.0,Active,0,LEO,USA,USA,Unknown,Unknown,Unknown,1 63312U 25057F   25301.48985065  .00269870  00000+0  20169-2 0  9991,2 63312  42.9995 341.6001 0002301 296.6835  63.3797 15.71101120 36413,15.7110112,0.0002301,LEO
63313,STARLINK-11648 [DTC],2025,91.67,-1.0,+,43.0,Active,0,LEO,USA,USA,Unknown,Unknown,Unknown,1 63313U 25057G   25300.40802425  .00245734  00000+0  18595-2 0  9994,2 63313  42.9999 348.1075 0000985 257.1617 102.9141 15.70877693 36212,15.70877693,9.85e-05,LEO
63314,STARLINK-11640 [DTC],2025,91.67,-1.0,+,43.0,Active,0,LEO,USA,USA,Unknown,Unknown,Unknown,1 63314U 25057H   25301.42004469  .00291342  00000+0  21758-2 0  9991,2 63314  43.0001 341.9320 0001575 233.5929 126.4794 15.71053072 36373,15.71053072,0.0001575,LEO
63315,STARLINK-11652 [DTC],2025,91.66,-1.0,+,43.0,Active,0,LEO,USA,USA,Unknown,Unknown,Unknown,1 63315U 25057J   25301.47300337  .00270416  00000+0  20332-2 0  9996,2 63315  43.0025 341.4643 0002754 274.7857  85.2696 15.70955274 36412,15.70955274,0.0002754,LEO
63316,STARLINK-11645 [DTC],2025,91.67,-1.0,+,43.0,Active,0,LEO,USA,USA,Unknown,Unknown,Unknown,1 63316U 25057K   25301.49423359  .00264421  00000+0  19800-2 0  9996,2 63316  42.9991 341.6343 0005305 254.3831 105.6451 15.71060798 36418,15.71060798,0.0005305,LEO
63317,STARLINK-11633 [DTC],2025,91.67,-1.0,+,43.0,Active,0,LEO,USA,USA,Unknown,Unknown,Unknown,1 63317U 25057L   25300.49271427  .00199049  00000+0  15139-2 0  9997,2 63317  43.0005 346.9965 0002662 279.9659  80.0908 15.70901193 36234,15.70901193,0.0002662,LEO
63318,STARLINK-11593 [DTC],2025,91.67,-1.0,+,43.0,Active,0,LEO,USA,USA,Unknown,Unknown,Unknown,1 63318U 25057M   25301.58424774  .00265593  00000+0  20055-2 0  9995,2 63318  42.9995 340.5671 0001142 297.0850  62.9901 15.70867691 36439,15.70867691,0.0001142,LEO
63319,STARLINK-11588 [DTC],2025,91.67,-1.0,+,43.0,Active,0,LEO,USA,USA,Unknown,Unknown,Unknown,1 63319U 25057N   25301.46768909  .00318490  00000+0  23662-2 0  9996,2 63319  42.9990 341.4186 0005468 270.6143  89.4098 15.71086161 36384,15.71086161,0.0005468,LEO
63320,STARLINK-33671,2025,94.27,-1.0,+,43.0,Active,0,LEO,USA,USA,Unknown,Unknown,Unknown,1 63320U 25057P   25301.63041075  .00045268  00000+0  16433-2 0  9993,2 63320  43.0030  46.0135 0001410 275.8982  84.1709 15.27602524 35700,15.27602524,0.000141,LEO
63321,STARLINK-33650,2025,94.26,-1.0,+,43.01,Active,0,LEO,USA,USA,Unknown,Unknown,Unknown,1 63321U 25057Q   25301.04434657  .00030574  00000+0  11168-2 0  9995,2 63321  43.0020  59.7410 0002000 267.5385  92.5237 15.27554972 35452,15.27554972,0.0002,LEO
63322,STARLINK-33689,2025,94.26,-1.0,+,43.0,Active,0,LEO,USA,USA,Unknown,Unknown,Unknown,1 63322U 25057R   25301.03664260  .00036862  00000+0  13425-2 0  9994,2 63322  43.0004  59.6770 0000995 283.7377  76.3364 15.27578101 35490,15.27578101,9.95e-05,LEO
63323,STARLINK-33607,2025,94.26,-1.0,+,43.01,Active,0,LEO,USA,USA,Unknown,Unknown,Unknown,1 63323U 25057S   25301.05849001  .00037002  00000+0  13471-2 0  9993,2 63323  43.0014  59.8459 0001860 276.7168  83.3472 15.27586187 35457,15.27586187,0.000186,LEO
63324,STARLINK-33619,2025,94.27,-1.0,+,43.0,Active,0,LEO,USA,USA,Unknown,Unknown,Unknown,1 63324U 25057T   25301.02765405  .00040980  00000+0  14902-2 0  9995,2 63324  43.0000  59.6046 0000854 359.4469   0.6381 15.27585963 35494,15.27585963,8.54e-05,LEO
63325,STARLINK-33612,2025,94.27,-1.0,+,43.0,Active,0,LEO,USA,USA,Unknown,Unknown,Unknown,1 63325U 25057U   25300.75596938  .00034060  00000+0  12408-2 0  9999,2 63325  43.0033  61.8749 0002037 279.5615  80.5006 15.27599492 35444,15.27599492,0.0002037,LEO
63326,STARLINK-33672,2025,94.27,-1.0,+,43.0,Active,0,LEO,USA,USA,Unknown,Unknown,Unknown,1 63326U 25057V   25301.66674769  .00041604  00000+0  15144-2 0  9992,2 63326  43.0027  56.1934 0001456 282.0069 271.8880 15.27546381  5729,15.27546381,0.0001456,LEO
63327,STARLINK-33625,2025,94.27,-1.0,+,43.0,Active,0,LEO,USA,USA,Unknown,Unknown,Unknown,1 63327U 25057W   25301.59781870  .00029749  00000+0  10853-2 0  9995,2 63327  43.0022  49.2230 0001093 290.2895  69.7839 15.27608014 35668,15.27608014,0.0001093,LEO
63328,STARLINK-33699,2025,94.27,-1.0,+,43.0,Active,0,LEO,USA,USA,Unknown,Unknown,Unknown,1 63328U 25057X   25300.80161266  .00050340  00000+0  18218-2 0  9994,2 63328  43.0012  53.5663 0001951 277.2163  82.8466 15.27662111 35505,15.27662111,0.0001951,LEO
63329,STARLINK-33674,2025,94.26,-1.0,+,43.0,Active,0,LEO,USA,USA,Unknown,Unknown,Unknown,1 63329U 25057Y   25300.80463141  .00030237  00000+0  11011-2 0  9999,2 63329  43.0031  61.3760 0001628 276.6675  83.3991 15.27661567 35451,15.27661567,0.0001628,LEO
63344,YUNYAO-1 43,2025,95.43,-1.0,+,97.6,Active,0,LEO,PRC,China,Unknown,Unknown,Unknown,1 63344U 25059A   25301.63001888  .00005711  00000+0  36540-3 0  9990,2 63344  97.6042 119.6303 0014191 224.6025 135.4063 15.08906817 33351,15.08906817,0.0014191,LEO
63345,YUNYAO-1 44,2025,95.43,-1.0,+,97.6,Active,0,LEO,PRC,China,Unknown,Unknown,Unknown,1 63345U 25059B   25301.61875997  .00005369  00000+0  34349-3 0  9993,2 63345  97.6028 119.6095 0016577 228.3388 131.6422 15.08904766 33355,15.08904766,0.0016577,LEO
63346,YUNYAO-1 45,2025,95.43,-1.0,+,97.61,Active,0,LEO,PRC,China,Unknown,Unknown,Unknown,1 63346U 25059C   25301.61103530  .00004976  00000+0  31866-3 0  9995,2 63346  97.6053 119.7017 0015605 227.6900 132.3007 15.08920159 33353,15.08920159,0.0015605,LEO
63347,YUNYAO-1 46,2025,95.43,-1.0,+,97.6,Active,0,LEO,PRC,China,Unknown,Unknown,Unknown,1 63347U 25059D   25301.64034188  .00005985  00000+0  38301-3 0  9993,2 63347  97.6052 119.6465 0011729 215.4112 144.6339 15.08900468 33357,15.08900468,0.0011729,LEO
63348,YUNYAO-1 47,2025,95.42,-1.0,+,97.6,Active,0,LEO,PRC,China,Unknown,Unknown,Unknown,1 63348U 25059E   25301.66399389  .00005505  00000+0  35059-3 0  9998,2 63348  97.6017 119.6905 0015784 229.3899 130.5957 15.09070457 33356,15.09070457,0.0015784,LEO
63349,YUNYAO-1 48,2025,95.42,-1.0,+,97.6,Active,0,LEO,PRC,China,Unknown,Unknown,Unknown,1 63349U 25059F   25301.65491603  .00006116  00000+0  38828-3 0  9996,2 63349  97.6030 119.7375 0015147 231.4508 128.5364 15.09146963 33353,15.09146963,0.0015147,LEO
